{
    "links": {
        "self": "http://www.neowsapp.com/rest/v1/neo/3014162?api_key=iIulBulltgU6a56xZRHN4H3l9WmuAYTsLGpBGhQ2"
    },
    "id": "3014162",
    "neo_reference_id": "3014162",
    "name": "(1998 QV3)",
    "designation": "1998 QV3",
    "nasa_jpl_url": "http://ssd.jpl.nasa.gov/sbdb.cgi?sstr=3014162",
    "absolute_magnitude_h": 20.5,
    "estimated_diameter": {
        "kilometers": {
            "estimated_diameter_min": 0.2111324448,
            "estimated_diameter_max": 0.4721064988
        },
        "meters": {
            "estimated_diameter_min": 211.1324447897,
            "estimated_diameter_max": 472.1064988055
        },
        "miles": {
            "estimated_diameter_min": 0.1311915784,
            "estimated_diameter_max": 0.2933532873
        },
        "feet": {
            "estimated_diameter_min": 692.6917701639,
            "estimated_diameter_max": 1548.9058855411
        }
    },
    "is_potentially_hazardous_asteroid": false,
    "close_approach_data": [
        {
            "close_approach_date": "1991-08-21",
            "close_approach_date_full": "1991-Aug-21 23:14",
            "epoch_date_close_approach": 682816440000,
            "relative_velocity": {
                "kilometers_per_second": "17.7960371573",
                "kilometers_per_hour": "64065.7337662166",
                "miles_per_hour": "39807.955517125"
            },
            "miss_distance": {
                "astronomical": "0.471244036",
                "lunar": "183.313930004",
                "kilometers": "70497104.03580332",
                "miles": "43804869.189073016"
            },
            "orbiting_body": "Earth"
        },
        {
            "close_approach_date": "1998-09-08",
            "close_approach_date_full": "1998-Sep-08 07:11",
            "epoch_date_close_approach": 905238660000,
            "relative_velocity": {
                "kilometers_per_second": "9.7513600748",
                "kilometers_per_hour": "35104.8962694046",
                "miles_per_hour": "21812.8173513976"
            },
            "miss_distance": {
                "astronomical": "0.1698062952",
                "lunar": "66.0546488328",
                "kilometers": "25402660.074511224",
                "miles": "15784481.0341899312"
            },
            "orbiting_body": "Earth"
        },
        {
            "close_approach_date": "2005-09-23",
            "close_approach_date_full": "2005-Sep-23 03:12",
            "epoch_date_close_approach": 1127445120000,
            "relative_velocity": {
                "kilometers_per_second": "10.0116998205",
                "kilometers_per_hour": "36042.1193537996",
                "miles_per_hour": "22395.1713284762"
            },
            "miss_distance": {
                "astronomical": "0.3682258157",
                "lunar": "143.2398423073",
                "kilometers": "55085797.707732559",
                "miles": "34228727.4884009542"
            },
            "orbiting_body": "Earth"
        }
    ],
    "orbital_data": {
        "orbit_id": "11",
        "orbit_determination_date": "2017-04-06 09:17:44",
        "first_observation_date": "1998-08-17",
        "last_observation_date": "1998-10-13",
        "data_arc_in_days": 57,
        "observations_used": 63,
        "orbit_uncertainty": "7",
        "minimum_orbit_intersection": ".1644",
        "jupiter_tisserand_invariant": "3.358",
        "epoch_osculation": "2459000.5",
        "eccentricity": ".5100777870135264",
        "semi_major_axis": "2.317444600815556",
        "inclination": "14.22593091318752",
        "ascending_node_longitude": "332.7217429266503",
        "orbital_period": "1288.583210317588",
        "perihelion_distance": "1.135367587305112",
        "perihelion_argument": "33.6190688455695",
        "aphelion_distance": "3.499521614326",
        "perihelion_time": "2458808.762301154736",
        "mean_anomaly": "53.56702697320004",
        "mean_motion": ".2793766030144637",
        "equinox": "J2000",
        "orbit_class": {
            "orbit_class_type": "AMO",
            "orbit_class_description": "Near-Earth asteroid orbits similar to that of 1221 Amor",
            "orbit_class_range": "1.017 AU < q (perihelion) < 1.3 AU"
        }
    },
    "is_sentry_object": false
}